0034D         2026 08 25.2440  1.213990  0.758042  218.0296   57.8648   10.5826  20250501   9.0  4.0  34D/Gale                                                   9,  314
0035P         2092 04  8.286   0.73301   0.97431    29.204   356.216    64.580   20250501   9.0  4.0  35P/Herschel-Rigollet                                     15,  452
0036P         2028 11  4.9017  3.030510  0.268186  201.2034  181.8285    9.9462  20250501   8.5  6.0  36P/Whipple                                              MPEC 2023-RF3
0037P         2024 10 11.2380  1.617795  0.532675  330.0595  314.5492    8.9478  20250501  10.5  4.8  37P/Forbes                                               MPEC 2025-GB9
0038P         2018 11 13.8024  1.579280  0.859787  359.5875   77.8604   18.4148  20250501   3.5 12.0  38P/Stephan-Oterma                                       MPEC 2024-YC7
0039P         2023 09  3.4329  5.755316  0.174004  114.5196  289.2845    1.7150  20250501   7.0  6.0  39P/Oterma                                               MPEC 2024-AF0
0040P         2025 11 11.8837  1.823694  0.631703   52.0278  128.9005   11.6389  20250501   5.5 12.0  40P/Vaisala                                              MPEC 2025-GB9
0041P         2022 09 13.3273  1.051017  0.659624   62.2185  140.9723    9.2163  20250501  10.0 16.0  41P/Tuttle-Giacobini-Kresak                              MPEC 2023-SQ0
0042P         2026 01 14.9695  2.029457  0.584058  147.1443  150.1505    3.9882  20250501  13.0  6.0  42P/Neujmin                                              MPC 94283
0043P         2025 08  4.7584  2.442774  0.436246  223.8241  243.9955    9.3327  20250501   8.0  6.0  43P/Wolf-Harrington                                      MPEC 2025-GB9
0044P         2022 04 22.1416  2.114033  0.426750   57.9982  286.4222    5.8959  20250501   8.3  6.0  44P/Reinmuth                                             MPEC 2024-F34
0045P         2027 08 31.4589  0.557462  0.817632  327.9499   87.6859    4.3241  20250501  13.5  8.0  45P/Honda-Mrkos-Pajdusakova                              MPEC 2022-O01
0046P         2024 05 19.0977  1.055176  0.658732  356.3394   82.1616   11.7497  20250501  14.0  6.0  46P/Wirtanen                                             MPEC 2024-F91
0047P         2025 10 27.9655  2.807479  0.318224  357.9076  356.8832   13.0383  20250501   1.0 11.2  47P/Ashbrook-Jackson                                     MPEC 2025-J08
0048P         2025 03  2.6426  2.006569  0.426559  216.7748  110.0641   12.2017  20250501  10.0  6.0  48P/Johnson                                              MPEC 2024-UA9
0049P         2025 04 10.6123  1.431349  0.599058  332.9311  118.7911   19.0594  20250501  11.3  4.4  49P/Arend-Rigaux                                         MPEC 2025-J08
0050P         2024 05 12.6454  1.921963  0.529727   49.3166  355.1452   19.1002  20250501   9.5  6.0  50P/Arend                                                MPEC 2025-HB5
0051P         2022 09 30.7233  1.694117  0.542799  269.2364   83.6587    5.4264  20250501  10.0  8.0  51P/Harrington                                           MPEC 2023-J29
0051P      a  2022 10  3.3034  1.693970  0.542992   83.6451  269.2300    5.4262  20250501  10.0  8.0  51P-A/Harrington                                         NK   3014
0051P      d  2022 10  1.1467  1.693796  0.542929  269.2545   83.6469    5.4268  20250501  16.0  8.0  51P-D/Harrington                                         MPEC 2023-J29
0052P         2021 10  6.1858  1.772426  0.541076  139.6109  336.7568   10.2374  20250501  13.5  6.0  52P/Harrington-Abell                                     MPEC 2023-XP6
0053P         2028 12 26.3213  2.449777  0.549603  134.3440  148.8524    6.6023  20250501   7.7  4.8  53P/VanBiesbroeck                                        MPEC 2023-TM6
0054P         2024 09  4.0877  2.172008  0.426858    2.0537  358.7696    6.0624  20250501  10.0  6.0  54P/deVico-Swift-NEAT                                    MPEC 2024-YC7
0055P         2031 05 22.5539  0.974754  0.905714  172.4904  235.4126  162.4860  20250501   9.0  4.0  55P/Tempel-Tuttle                                        MPC 31070
0056P         2027 12 19.4202  2.489222  0.508379   44.2150  345.8924    8.1549  20250501   8.5  6.0  56P/Slaughter-Burnham                                    MPEC 2023-TM6
0057P         2028 03  4.9396  1.716457  0.501190  115.0551  188.7485    2.8530  20250501  12.5  6.0  57P/duToit-Neujmin-Delporte                              MPEC 2024-DC6
0058P         2028 09  4.2677  1.383970  0.661708  200.5825  159.0422   13.0885  20250501  15.5  6.0  58P/Jackson-Neujmin                                      MPEC 2024-A43
0059P         2028 03 15.4332  2.342552  0.477026  127.6634  312.7295    9.3555  20250501   7.0  6.0  59P/Kearns-Kwee                                          MPEC 2023-A50
0060P         2025 07 20.6204  1.645664  0.533866  216.9210  267.3963    3.5799  20250501  11.5  6.0  60P/Tsuchinshan                                          MPC182887
0061P         2022 10 23.4568  2.128973  0.423114  221.7067  162.9619    5.9970  20250501   6.0 10.0  61P/Shajn-Schaldach                                      MPEC 2024-JU4
0062P         2023 12 25.1896  1.265119  0.624704   47.3292   68.6659    4.7371  20250501   8.0 10.0  62P/Tsuchinshan                                          MPC182887
0063P         2026 07  6.3045  1.973015  0.650749  168.8017  357.7801   19.6219  20250501  10.5  6.0  63P/Wild                                                 MPC 84320
0064P         2028 03 30.9710  1.387014  0.688467   97.3321  299.7755    8.9536  20250501   9.5 12.0  64P/Swift-Gehrels                                        MPEC 2024-A43
0065P         2025 06 16.4967  2.926250  0.248144  213.6788   61.9761    9.1754  20250501   5.0  6.0  65P/Gunn                                                 MPEC 2025-J08
0066P         2018 05 13.0357  1.305293  0.784976  257.3914   21.8351   18.6449  20250501  15.0  4.0  66P/duToit                                               MPEC 2021-F20
0067P         2028 04  9.0386  1.210986  0.649861   22.2078   36.3165    3.8687  20250501  11.0  4.0  67P/Churyumov-Gerasimenko                                MPEC 2024-C04
0068P         2019 11  6.3456  1.807638  0.635811  153.2271  175.0902   11.0999  20250501  12.6  4.0  68P/Klemola                                              MPEC 2023-HD1
0069P         2026 11 12.3366  2.271352  0.414686  343.4913  104.8082   22.0613  20250501   9.5 12.0  69P/Taylor                                               MPEC 2024-C04
0070P         2021 11  4.0641  2.003994  0.454769    1.7905  119.2352    6.6029  20250501  11.0  6.0  70P/Kojima                                               MPEC 2023-VM5
0071P         2023 01 22.2426  1.622865  0.488330  210.2809   59.2943    9.3257  20250501   9.8  6.0  71P/Clark                                                MPEC 2024-YC7
0072P         2023 06 15.6040  0.782413  0.818365  346.7431   26.7187   10.9444  20250501  17.5 10.0  72P/Denning-Fujikawa                                     MPEC 2023-VM5
0073P         2027 12 11.7188  0.839390  0.722189  203.7453   63.8703    8.4537  20250501  11.5  6.0  73P/Schwassmann-Wachmann                                 MPEC 2023-RF3
0073P      b  2022 09  3.3239  0.932506  0.696499   74.3347  194.0502   10.7265  20250501   9.0  4.0  73P-B/Schwassmann-Wachmann B                             NK   1613
0073P      c  2022 08 30.2942  0.932817  0.696265   74.1854  194.2361   10.7390  20250501   9.0  4.0  73P-C/Schwassmann-Wachmann                               NK   2710
0073P      e  2022 09 12.0327  0.932365  0.696926   74.6412  193.7101   10.6943  20250501   9.0  4.0  73P-E/Schwassmann-Wachmann                               NK    934
0073P      g  2006 06  8.096   0.93920   0.69330   198.772    69.909    11.388              9.0  4.0  73P-G/Schwassmann-Wachmann                               MPC 56796
0073P      h  2006 06  8.281   0.93918   0.69330   198.778    69.903    11.389              9.0  4.0  73P-H/Schwassmann-Wachmann                               MPC 56796
0073P      j  2006 06  8.141   0.93966   0.69330   198.673    69.983    11.386              9.0  4.0  73P-J/Schwassmann-Wachmann                               MPC 56796
0073P      k  2006 06  8.224   0.93903   0.69330   198.809    69.881    11.390              9.0  4.0  73P-K/Schwassmann-Wachmann                               MPC 56797
0073P      l  2006 06  8.340   0.93914   0.69330   198.772    69.911    11.388              9.0  4.0  73P-L/Schwassmann-Wachmann                               MPC 56797
0073P      m  2006 06  8.262   0.93912   0.69330   198.787    69.895    11.389              9.0  4.0  73P-M/Schwassmann-Wachmann                               MPC 56797
0073P      n  2006 06  8.261   0.93920   0.69330   198.754    69.909    11.389              9.0  4.0  73P-N/Schwassmann-Wachmann                               MPC 56797
0073P      p  2006 06  7.872   0.93917   0.69330   198.783    69.900    11.390              9.0  4.0  73P-P/Schwassmann-Wachmann                               MPC 56797
0073P      q  2006 06  7.725   0.93941   0.69330   198.717    69.944    11.387              9.0  4.0  73P-Q/Schwassmann-Wachmann                               MPC 56797
0073P      r  2006 06  8.185   0.93918   0.69330   198.776    69.904    11.388              9.0  4.0  73P-R/Schwassmann-Wachmann                               MPC 56797
0073P      s  2006 06  8.689   0.98977   0.69330   188.229    77.364    11.127              9.0  4.0  73P-S/Schwassmann-Wachmann                               MPC 56797
0073P      t  2027 12  9.9557  0.839716  0.722000  203.6249   64.0066    8.5170  20250501   9.0  4.0  73P-T/Schwassmann-Wachmann                               MPEC 2023-J29
0073P      u  2006 06  9.016   0.93962   0.69330   198.659    69.994    11.384              9.0  4.0  73P-U/Schwassmann-Wachmann                               MPC 56797
